<?xml version="1.0" encoding="UTF-8"?>
<ndm xmlns:xsi="http://www.w3.org/2001/XMLSchema-instance" xsi:noNamespaceSchemaLocation="https://sanaregistry.org/r/ndmxml_unqualified/ndmxml-2.0.0-master-2.0.xsd">
<omm id="CCSDS_OMM_VERS" version="2.0">
<header><CREATION_DATE/><ORIGINATOR/></header><body><segment><metadata><OBJECT_NAME>KUIPER-00079</OBJECT_NAME><OBJECT_ID>2025-151L</OBJECT_ID><CENTER_NAME>EARTH</CENTER_NAME><REF_FRAME>TEME</REF_FRAME><TIME_SYSTEM>UTC</TIME_SYSTEM><MEAN_ELEMENT_THEORY>SGP4</MEAN_ELEMENT_THEORY></metadata><data><meanElements><EPOCH>2025-11-16T16:49:31.820736</EPOCH><MEAN_MOTION>14.77981246</MEAN_MOTION><ECCENTRICITY>.00118174</ECCENTRICITY><INCLINATION>51.9012</INCLINATION><RA_OF_ASC_NODE>80.0624</RA_OF_ASC_NODE><ARG_OF_PERICENTER>223.1958</ARG_OF_PERICENTER><MEAN_ANOMALY>136.8078</MEAN_ANOMALY></meanElements><tleParameters><EPHEMERIS_TYPE>0</EPHEMERIS_TYPE><CLASSIFICATION_TYPE>U</CLASSIFICATION_TYPE><NORAD_CAT_ID>64826</NORAD_CAT_ID><ELEMENT_SET_NO>999</ELEMENT_SET_NO><REV_AT_EPOCH>1977</REV_AT_EPOCH><BSTAR>.38169403E-3</BSTAR><MEAN_MOTION_DOT>.2562E-4</MEAN_MOTION_DOT><MEAN_MOTION_DDOT>0</MEAN_MOTION_DDOT></tleParameters></data></segment></body></omm>
<omm id="CCSDS_OMM_VERS" version="2.0">
<header><CREATION_DATE/><ORIGINATOR/></header><body><segment><metadata><OBJECT_NAME>KUIPER-00080</OBJECT_NAME><OBJECT_ID>2025-151M</OBJECT_ID><CENTER_NAME>EARTH</CENTER_NAME><REF_FRAME>TEME</REF_FRAME><TIME_SYSTEM>UTC</TIME_SYSTEM><MEAN_ELEMENT_THEORY>SGP4</MEAN_ELEMENT_THEORY></metadata><data><meanElements><EPOCH>2025-11-16T17:58:16.235328</EPOCH><MEAN_MOTION>14.79779427</MEAN_MOTION><ECCENTRICITY>.00051043</ECCENTRICITY><INCLINATION>51.8989</INCLINATION><RA_OF_ASC_NODE>79.9952</RA_OF_ASC_NODE><ARG_OF_PERICENTER>239.3735</ARG_OF_PERICENTER><MEAN_ANOMALY>120.6724</MEAN_ANOMALY></meanElements><tleParameters><EPHEMERIS_TYPE>0</EPHEMERIS_TYPE><CLASSIFICATION_TYPE>U</CLASSIFICATION_TYPE><NORAD_CAT_ID>64827</NORAD_CAT_ID><ELEMENT_SET_NO>999</ELEMENT_SET_NO><REV_AT_EPOCH>1858</REV_AT_EPOCH><BSTAR>-.90059315E-3</BSTAR><MEAN_MOTION_DOT>-.7057E-4</MEAN_MOTION_DOT><MEAN_MOTION_DDOT>0</MEAN_MOTION_DDOT></tleParameters></data></segment></body></omm>
<omm id="CCSDS_OMM_VERS" version="2.0">
<header><CREATION_DATE/><ORIGINATOR/></header><body><segment><metadata><OBJECT_NAME>KUIPER-00082</OBJECT_NAME><OBJECT_ID>2025-151N</OBJECT_ID><CENTER_NAME>EARTH</CENTER_NAME><REF_FRAME>TEME</REF_FRAME><TIME_SYSTEM>UTC</TIME_SYSTEM><MEAN_ELEMENT_THEORY>SGP4</MEAN_ELEMENT_THEORY></metadata><data><meanElements><EPOCH>2025-11-17T16:10:30.216576</EPOCH><MEAN_MOTION>14.79925118</MEAN_MOTION><ECCENTRICITY>.0004581</ECCENTRICITY><INCLINATION>51.9022</INCLINATION><RA_OF_ASC_NODE>63.4154</RA_OF_ASC_NODE><ARG_OF_PERICENTER>257.4375</ARG_OF_PERICENTER><MEAN_ANOMALY>102.6075</MEAN_ANOMALY></meanElements><tleParameters><EPHEMERIS_TYPE>0</EPHEMERIS_TYPE><CLASSIFICATION_TYPE>U</CLASSIFICATION_TYPE><NORAD_CAT_ID>64828</NORAD_CAT_ID><ELEMENT_SET_NO>999</ELEMENT_SET_NO><REV_AT_EPOCH>1889</REV_AT_EPOCH><BSTAR>.97255E-3</BSTAR><MEAN_MOTION_DOT>.72E-4</MEAN_MOTION_DOT><MEAN_MOTION_DDOT>0</MEAN_MOTION_DDOT></tleParameters></data></segment></body></omm>
<omm id="CCSDS_OMM_VERS" version="2.0">
<header><CREATION_DATE/><ORIGINATOR/></header><body><segment><metadata><OBJECT_NAME>KUIPER-00083</OBJECT_NAME><OBJECT_ID>2025-151P</OBJECT_ID><CENTER_NAME>EARTH</CENTER_NAME><REF_FRAME>TEME</REF_FRAME><TIME_SYSTEM>UTC</TIME_SYSTEM><MEAN_ELEMENT_THEORY>SGP4</MEAN_ELEMENT_THEORY></metadata><data><meanElements><EPOCH>2025-11-17T15:58:43.741056</EPOCH><MEAN_MOTION>14.79951074</MEAN_MOTION><ECCENTRICITY>.001064</ECCENTRICITY><INCLINATION>51.8993</INCLINATION><RA_OF_ASC_NODE>70.9486</RA_OF_ASC_NODE><ARG_OF_PERICENTER>232.5079</ARG_OF_PERICENTER><MEAN_ANOMALY>127.4916</MEAN_ANOMALY></meanElements><tleParameters><EPHEMERIS_TYPE>0</EPHEMERIS_TYPE><CLASSIFICATION_TYPE>U</CLASSIFICATION_TYPE><NORAD_CAT_ID>64829</NORAD_CAT_ID><ELEMENT_SET_NO>999</ELEMENT_SET_NO><REV_AT_EPOCH>1997</REV_AT_EPOCH><BSTAR>-.10459E-3</BSTAR><MEAN_MOTION_DOT>-.1022E-4</MEAN_MOTION_DOT><MEAN_MOTION_DDOT>0</MEAN_MOTION_DDOT></tleParameters></data></segment></body></omm>
<omm id="CCSDS_OMM_VERS" version="2.0">
<header><CREATION_DATE/><ORIGINATOR/></header><body><segment><metadata><OBJECT_NAME>KUIPER-00084</OBJECT_NAME><OBJECT_ID>2025-151Q</OBJECT_ID><CENTER_NAME>EARTH</CENTER_NAME><REF_FRAME>TEME</REF_FRAME><TIME_SYSTEM>UTC</TIME_SYSTEM><MEAN_ELEMENT_THEORY>SGP4</MEAN_ELEMENT_THEORY></metadata><data><meanElements><EPOCH>2025-11-17T17:20:39.175296</EPOCH><MEAN_MOTION>14.79889356</MEAN_MOTION><ECCENTRICITY>.0010609</ECCENTRICITY><INCLINATION>51.9011</INCLINATION><RA_OF_ASC_NODE>80.6851</RA_OF_ASC_NODE><ARG_OF_PERICENTER>195.7429</ARG_OF_PERICENTER><MEAN_ANOMALY>164.3205</MEAN_ANOMALY></meanElements><tleParameters><EPHEMERIS_TYPE>0</EPHEMERIS_TYPE><CLASSIFICATION_TYPE>U</CLASSIFICATION_TYPE><NORAD_CAT_ID>64830</NORAD_CAT_ID><ELEMENT_SET_NO>999</ELEMENT_SET_NO><REV_AT_EPOCH>1865</REV_AT_EPOCH><BSTAR>.35235E-2</BSTAR><MEAN_MOTION_DOT>.2674E-3</MEAN_MOTION_DOT><MEAN_MOTION_DDOT>0</MEAN_MOTION_DDOT></tleParameters></data></segment></body></omm>
<omm id="CCSDS_OMM_VERS" version="2.0">
<header><CREATION_DATE/><ORIGINATOR/></header><body><segment><metadata><OBJECT_NAME>KUIPER-00085</OBJECT_NAME><OBJECT_ID>2025-151R</OBJECT_ID><CENTER_NAME>EARTH</CENTER_NAME><REF_FRAME>TEME</REF_FRAME><TIME_SYSTEM>UTC</TIME_SYSTEM><MEAN_ELEMENT_THEORY>SGP4</MEAN_ELEMENT_THEORY></metadata><data><meanElements><EPOCH>2025-11-17T16:59:09.227616</EPOCH><MEAN_MOTION>14.79935644</MEAN_MOTION><ECCENTRICITY>.0007091</ECCENTRICITY><INCLINATION>51.9045</INCLINATION><RA_OF_ASC_NODE>63.2772</RA_OF_ASC_NODE><ARG_OF_PERICENTER>236.5708</ARG_OF_PERICENTER><MEAN_ANOMALY>123.4577</MEAN_ANOMALY></meanElements><tleParameters><EPHEMERIS_TYPE>0</EPHEMERIS_TYPE><CLASSIFICATION_TYPE>U</CLASSIFICATION_TYPE><NORAD_CAT_ID>64831</NORAD_CAT_ID><ELEMENT_SET_NO>999</ELEMENT_SET_NO><REV_AT_EPOCH>1889</REV_AT_EPOCH><BSTAR>.23501E-2</BSTAR><MEAN_MOTION_DOT>.17748E-3</MEAN_MOTION_DOT><MEAN_MOTION_DDOT>0</MEAN_MOTION_DDOT></tleParameters></data></segment></body></omm>
<omm id="CCSDS_OMM_VERS" version="2.0">
<header><CREATION_DATE/><ORIGINATOR/></header><body><segment><metadata><OBJECT_NAME>KUIPER-00086</OBJECT_NAME><OBJECT_ID>2025-151S</OBJECT_ID><CENTER_NAME>EARTH</CENTER_NAME><REF_FRAME>TEME</REF_FRAME><TIME_SYSTEM>UTC</TIME_SYSTEM><MEAN_ELEMENT_THEORY>SGP4</MEAN_ELEMENT_THEORY></metadata><data><meanElements><EPOCH>2025-11-17T11:51:12.365568</EPOCH><MEAN_MOTION>14.79964663</MEAN_MOTION><ECCENTRICITY>.00108824</ECCENTRICITY><INCLINATION>51.9020</INCLINATION><RA_OF_ASC_NODE>74.2052</RA_OF_ASC_NODE><ARG_OF_PERICENTER>224.2810</ARG_OF_PERICENTER><MEAN_ANOMALY>135.7283</MEAN_ANOMALY></meanElements><tleParameters><EPHEMERIS_TYPE>0</EPHEMERIS_TYPE><CLASSIFICATION_TYPE>U</CLASSIFICATION_TYPE><NORAD_CAT_ID>64832</NORAD_CAT_ID><ELEMENT_SET_NO>999</ELEMENT_SET_NO><REV_AT_EPOCH>1872</REV_AT_EPOCH><BSTAR>.27364484E-3</BSTAR><MEAN_MOTION_DOT>.1866E-4</MEAN_MOTION_DOT><MEAN_MOTION_DDOT>0</MEAN_MOTION_DDOT></tleParameters></data></segment></body></omm>
<omm id="CCSDS_OMM_VERS" version="2.0">
<header><CREATION_DATE/><ORIGINATOR/></header><body><segment><metadata><OBJECT_NAME>KUIPER-00087</OBJECT_NAME><OBJECT_ID>2025-151T</OBJECT_ID><CENTER_NAME>EARTH</CENTER_NAME><REF_FRAME>TEME</REF_FRAME><TIME_SYSTEM>UTC</TIME_SYSTEM><MEAN_ELEMENT_THEORY>SGP4</MEAN_ELEMENT_THEORY></metadata><data><meanElements><EPOCH>2025-11-17T20:00:04.000032</EPOCH><MEAN_MOTION>14.80241095</MEAN_MOTION><ECCENTRICITY>.0001526</ECCENTRICITY><INCLINATION>51.9002</INCLINATION><RA_OF_ASC_NODE>55.2159</RA_OF_ASC_NODE><ARG_OF_PERICENTER>264.8656</ARG_OF_PERICENTER><MEAN_ANOMALY>0.7478</MEAN_ANOMALY></meanElements><tleParameters><EPHEMERIS_TYPE>0</EPHEMERIS_TYPE><CLASSIFICATION_TYPE>U</CLASSIFICATION_TYPE><NORAD_CAT_ID>64833</NORAD_CAT_ID><ELEMENT_SET_NO>999</ELEMENT_SET_NO><REV_AT_EPOCH>405</REV_AT_EPOCH><BSTAR>-.36901E-2</BSTAR><MEAN_MOTION_DOT>-.28441E-3</MEAN_MOTION_DOT><MEAN_MOTION_DDOT>0</MEAN_MOTION_DDOT></tleParameters></data></segment></body></omm>

</ndm>
